{
    "links": {
        "self": "http://www.neowsapp.com/rest/v1/neo/3340061?api_key=iIulBulltgU6a56xZRHN4H3l9WmuAYTsLGpBGhQ2"
    },
    "id": "3340061",
    "neo_reference_id": "3340061",
    "name": "(2006 QM111)",
    "designation": "2006 QM111",
    "nasa_jpl_url": "http://ssd.jpl.nasa.gov/sbdb.cgi?sstr=3340061",
    "absolute_magnitude_h": 27.6,
    "estimated_diameter": {
        "kilometers": {
            "estimated_diameter_min": 0.0080270317,
            "estimated_diameter_max": 0.0179489885
        },
        "meters": {
            "estimated_diameter_min": 8.0270316728,
            "estimated_diameter_max": 17.948988478
        },
        "miles": {
            "estimated_diameter_min": 0.0049877647,
            "estimated_diameter_max": 0.0111529809
        },
        "feet": {
            "estimated_diameter_min": 26.3354065935,
            "estimated_diameter_max": 58.8877593581
        }
    },
    "is_potentially_hazardous_asteroid": false,
    "close_approach_data": [
        {
            "close_approach_date": "2006-08-31",
            "close_approach_date_full": "2006-Aug-31 20:48",
            "epoch_date_close_approach": 1157057280000,
            "relative_velocity": {
                "kilometers_per_second": "19.9408957735",
                "kilometers_per_hour": "71787.2247847292",
                "miles_per_hour": "44605.7897558225"
            },
            "miss_distance": {
                "astronomical": "0.0027227816",
                "lunar": "1.0591620424",
                "kilometers": "407322.327835192",
                "miles": "253098.3581899696"
            },
            "orbiting_body": "Moon"
        },
        {
            "close_approach_date": "2006-08-31",
            "close_approach_date_full": "2006-Aug-31 21:30",
            "epoch_date_close_approach": 1157059800000,
            "relative_velocity": {
                "kilometers_per_second": "18.9665764489",
                "kilometers_per_hour": "68279.6752161437",
                "miles_per_hour": "42426.3348586088"
            },
            "miss_distance": {
                "astronomical": "0.0010690233",
                "lunar": "0.4158500637",
                "kilometers": "159923.608660371",
                "miles": "99371.9224842798"
            },
            "orbiting_body": "Earth"
        }
    ],
    "orbital_data": {
        "orbit_id": "7",
        "orbit_determination_date": "2017-04-06 09:08:12",
        "first_observation_date": "2006-08-31",
        "last_observation_date": "2006-08-31",
        "data_arc_in_days": null,
        "observations_used": 67,
        "orbit_uncertainty": "8",
        "minimum_orbit_intersection": ".00107131",
        "jupiter_tisserand_invariant": "2.948",
        "epoch_osculation": "2453979.5",
        "eccentricity": ".7336258125550554",
        "semi_major_axis": "2.624417473657322",
        "inclination": "1.491582485969129",
        "ascending_node_longitude": "155.9288177244355",
        "orbital_period": "1552.915439621871",
        "perihelion_distance": ".6990770720617835",
        "perihelion_argument": "256.4436111361773",
        "aphelion_distance": "4.549757875252862",
        "perihelion_time": "2454022.965557416810",
        "mean_anomaly": "349.9237265141354",
        "mean_motion": ".2318220237978048",
        "equinox": "J2000",
        "orbit_class": {
            "orbit_class_type": "APO",
            "orbit_class_description": "Near-Earth asteroid orbits which cross the Earth’s orbit similar to that of 1862 Apollo",
            "orbit_class_range": "a (semi-major axis) > 1.0 AU; q (perihelion) < 1.017 AU"
        }
    },
    "is_sentry_object": false
}